NETSAT-2                
1 46507U 20068X   26062.44199100  .00027276  00000+0  65767-3 0  9999
2 46507  97.8649  62.0675 0005442  38.8289 321.3347 15.41194304299427
WILDTRACKCUBE-SIMBA     
1 47941U 21022K   26062.83119481  .02285702  24109-5  14212-2 0  9992
2 47941  97.3799 344.6623 0006236 130.5048 229.6784 16.17902265274906
GREENCUBE (IO-117)      
1 53109U 22080E   26061.72898270 -.00000003  00000+0  00000+0 0  9990
2 53109  70.1617 335.2737 0009043 313.3588  46.6318  6.42583122 85227
SITRO-AIS 5 (KATYS)     
1 57176U 23091L   26062.84780440  .00017897  00000+0  67819-3 0  9997
2 57176  97.5193 125.8786 0013407 113.5811 246.6837 15.26870664148255
SITRO-AIS 6 (CHIRKIN)   
1 57192U 23091AC  26062.87166201  .00009583  00000+0  39390-3 0  9997
2 57192  97.5198 125.5210 0014188 113.5004 246.7726 15.24297131148234
SITRO-AIS 8 (ANOKHIN)   
1 57193U 23091AD  26062.83855103  .00020598  00000+0  72857-3 0  9994
2 57193  97.5186 127.0657 0012631 111.3484 248.9105 15.29119081148331
SITRO-AIS 7 (FARTUSHNIY)
1 57194U 23091AE  26062.85525700  .00009069  00000+0  37566-3 0  9992
2 57194  97.5197 125.3781 0013982 114.5725 245.6971 15.24056646148221
SITRO-AIS 10 (BURDAEV)  
1 57199U 23091AK  26062.88416704  .00029035  00000+0  86955-3 0  9994
2 57199  97.5199 131.1803 0008465  92.9196 267.3016 15.34444370148596
SITRO-AIS 9 (SHCHUKIN)  
1 57201U 23091AM  26062.88098804  .00029589  00000+0  89624-3 0  9995
2 57201  97.5198 130.9798 0008641  92.7429 267.4803 15.34079720148589
SITRO-AIS 12 (SMIRENNIY)
1 57204U 23091AQ  26062.89021836  .00028264  00000+0  84977-3 0  9995
2 57204  97.5208 131.3949 0008333  87.8938 272.3259 15.34327583148601
SITRO-AIS 11 (SHEFFER)  
1 57208U 23091AU  26062.86468751  .00028767  00000+0  85583-3 0  9999
2 57208  97.5207 131.5563 0008209  88.1803 272.0380 15.34658397148618
SITRO-AIS 25            
1 59066U 24039R   26062.88752328  .00005523  00000+0  43904-3 0  9990
2 59066  95.3946 162.7652 0146037 336.7876  22.6796 14.92571149109010
SITRO-AIS 26            
1 59067U 24039S   26062.87519358  .00005513  00000+0  44010-3 0  9992
2 59067  95.3945 162.6752 0146320 337.2649  22.2137 14.92383778109002
SITRO-AIS 27            
1 59068U 24039T   26062.87407730  .00005376  00000+0  42569-3 0  9997
2 59068  95.3945 162.8988 0145453 336.1006  23.3510 14.92777936109029
SITRO-AIS 28            
1 59071U 24039U   26062.85394876  .00004987  00000+0  39488-3 0  9998
2 59071  95.3947 162.9268 0145401 336.0379  23.4123 14.92811660109026
GRBBETA                 
1 60237U 24128C   26062.73049505  .00007928  00000+0  54340-3 0  9998
2 60237  61.9889 226.0172 0051978 113.0310 247.6276 15.05700198 90380
