[{"OBJECT_NAME":"NETSAT-2","OBJECT_ID":"2020-068X","EPOCH":"2026-03-03T10:36:28.022400","MEAN_MOTION":15.41194304,"ECCENTRICITY":0.00054427,"INCLINATION":97.8649,"RA_OF_ASC_NODE":62.0675,"ARG_OF_PERICENTER":38.8289,"MEAN_ANOMALY":321.3347,"EPHEMERIS_TYPE":0,"CLASSIFICATION_TYPE":"U","NORAD_CAT_ID":46507,"ELEMENT_SET_NO":999,"REV_AT_EPOCH":29942,"BSTAR":0.00065767302,"MEAN_MOTION_DOT":0.00027276,"MEAN_MOTION_DDOT":0},{"OBJECT_NAME":"WILDTRACKCUBE-SIMBA","OBJECT_ID":"2021-022K","EPOCH":"2026-03-03T19:56:55.231584","MEAN_MOTION":16.17902265,"ECCENTRICITY":0.0006236,"INCLINATION":97.3799,"RA_OF_ASC_NODE":344.6623,"ARG_OF_PERICENTER":130.5048,"MEAN_ANOMALY":229.6784,"EPHEMERIS_TYPE":0,"CLASSIFICATION_TYPE":"U","NORAD_CAT_ID":47941,"ELEMENT_SET_NO":999,"REV_AT_EPOCH":27490,"BSTAR":0.0014212,"MEAN_MOTION_DOT":0.02285702,"MEAN_MOTION_DDOT":2.4109e-6},{"OBJECT_NAME":"GREENCUBE (IO-117)","OBJECT_ID":"2022-080E","EPOCH":"2026-03-02T17:29:44.105280","MEAN_MOTION":6.42583122,"ECCENTRICITY":0.00090439,"INCLINATION":70.1617,"RA_OF_ASC_NODE":335.2737,"ARG_OF_PERICENTER":313.3588,"MEAN_ANOMALY":46.6318,"EPHEMERIS_TYPE":0,"CLASSIFICATION_TYPE":"U","NORAD_CAT_ID":53109,"ELEMENT_SET_NO":999,"REV_AT_EPOCH":8522,"BSTAR":0,"MEAN_MOTION_DOT":-3.0e-8,"MEAN_MOTION_DDOT":0},{"OBJECT_NAME":"SITRO-AIS 5 (KATYS)","OBJECT_ID":"2023-091L","EPOCH":"2026-03-03T20:20:50.300160","MEAN_MOTION":15.26870664,"ECCENTRICITY":0.0013407,"INCLINATION":97.5193,"RA_OF_ASC_NODE":125.8786,"ARG_OF_PERICENTER":113.5811,"MEAN_ANOMALY":246.6837,"EPHEMERIS_TYPE":0,"CLASSIFICATION_TYPE":"U","NORAD_CAT_ID":57176,"ELEMENT_SET_NO":999,"REV_AT_EPOCH":14825,"BSTAR":0.00067819,"MEAN_MOTION_DOT":0.00017897,"MEAN_MOTION_DDOT":0},{"OBJECT_NAME":"SITRO-AIS 6 (CHIRKIN)","OBJECT_ID":"2023-091AC","EPOCH":"2026-03-03T20:55:11.597664","MEAN_MOTION":15.24297131,"ECCENTRICITY":0.0014188,"INCLINATION":97.5198,"RA_OF_ASC_NODE":125.521,"ARG_OF_PERICENTER":113.5004,"MEAN_ANOMALY":246.7726,"EPHEMERIS_TYPE":0,"CLASSIFICATION_TYPE":"U","NORAD_CAT_ID":57192,"ELEMENT_SET_NO":999,"REV_AT_EPOCH":14823,"BSTAR":0.0003939,"MEAN_MOTION_DOT":9.583e-5,"MEAN_MOTION_DDOT":0},{"OBJECT_NAME":"SITRO-AIS 8 (ANOKHIN)","OBJECT_ID":"2023-091AD","EPOCH":"2026-03-03T20:07:30.808992","MEAN_MOTION":15.29119081,"ECCENTRICITY":0.0012631,"INCLINATION":97.5186,"RA_OF_ASC_NODE":127.0657,"ARG_OF_PERICENTER":111.3484,"MEAN_ANOMALY":248.9105,"EPHEMERIS_TYPE":0,"CLASSIFICATION_TYPE":"U","NORAD_CAT_ID":57193,"ELEMENT_SET_NO":999,"REV_AT_EPOCH":14833,"BSTAR":0.00072857,"MEAN_MOTION_DOT":0.00020598,"MEAN_MOTION_DDOT":0},{"OBJECT_NAME":"SITRO-AIS 7 (FARTUSHNIY)","OBJECT_ID":"2023-091AE","EPOCH":"2026-03-03T20:31:34.204800","MEAN_MOTION":15.24056646,"ECCENTRICITY":0.0013982,"INCLINATION":97.5197,"RA_OF_ASC_NODE":125.3781,"ARG_OF_PERICENTER":114.5725,"MEAN_ANOMALY":245.6971,"EPHEMERIS_TYPE":0,"CLASSIFICATION_TYPE":"U","NORAD_CAT_ID":57194,"ELEMENT_SET_NO":999,"REV_AT_EPOCH":14822,"BSTAR":0.00037566,"MEAN_MOTION_DOT":9.069e-5,"MEAN_MOTION_DDOT":0},{"OBJECT_NAME":"SITRO-AIS 10 (BURDAEV)","OBJECT_ID":"2023-091AK","EPOCH":"2026-03-03T21:13:12.032256","MEAN_MOTION":15.3444437,"ECCENTRICITY":0.0008465,"INCLINATION":97.5199,"RA_OF_ASC_NODE":131.1803,"ARG_OF_PERICENTER":92.9196,"MEAN_ANOMALY":267.3016,"EPHEMERIS_TYPE":0,"CLASSIFICATION_TYPE":"U","NORAD_CAT_ID":57199,"ELEMENT_SET_NO":999,"REV_AT_EPOCH":14859,"BSTAR":0.00086955,"MEAN_MOTION_DOT":0.00029035,"MEAN_MOTION_DDOT":0},{"OBJECT_NAME":"SITRO-AIS 9 (SHCHUKIN)","OBJECT_ID":"2023-091AM","EPOCH":"2026-03-03T21:08:37.366656","MEAN_MOTION":15.3407972,"ECCENTRICITY":0.0008641,"INCLINATION":97.5198,"RA_OF_ASC_NODE":130.9798,"ARG_OF_PERICENTER":92.7429,"MEAN_ANOMALY":267.4803,"EPHEMERIS_TYPE":0,"CLASSIFICATION_TYPE":"U","NORAD_CAT_ID":57201,"ELEMENT_SET_NO":999,"REV_AT_EPOCH":14858,"BSTAR":0.00089624,"MEAN_MOTION_DOT":0.00029589,"MEAN_MOTION_DDOT":0},{"OBJECT_NAME":"SITRO-AIS 12 (SMIRENNIY)","OBJECT_ID":"2023-091AQ","EPOCH":"2026-03-03T21:21:54.866304","MEAN_MOTION":15.34327583,"ECCENTRICITY":0.0008333,"INCLINATION":97.5208,"RA_OF_ASC_NODE":131.3949,"ARG_OF_PERICENTER":87.8938,"MEAN_ANOMALY":272.3259,"EPHEMERIS_TYPE":0,"CLASSIFICATION_TYPE":"U","NORAD_CAT_ID":57204,"ELEMENT_SET_NO":999,"REV_AT_EPOCH":14860,"BSTAR":0.00084977,"MEAN_MOTION_DOT":0.00028264,"MEAN_MOTION_DDOT":0},{"OBJECT_NAME":"SITRO-AIS 11 (SHEFFER)","OBJECT_ID":"2023-091AU","EPOCH":"2026-03-03T20:45:09.000864","MEAN_MOTION":15.34658397,"ECCENTRICITY":0.0008209,"INCLINATION":97.5207,"RA_OF_ASC_NODE":131.5563,"ARG_OF_PERICENTER":88.1803,"MEAN_ANOMALY":272.038,"EPHEMERIS_TYPE":0,"CLASSIFICATION_TYPE":"U","NORAD_CAT_ID":57208,"ELEMENT_SET_NO":999,"REV_AT_EPOCH":14861,"BSTAR":0.00085583,"MEAN_MOTION_DOT":0.00028767,"MEAN_MOTION_DDOT":0},{"OBJECT_NAME":"SITRO-AIS 25","OBJECT_ID":"2024-039R","EPOCH":"2026-03-03T21:18:02.011392","MEAN_MOTION":14.92571149,"ECCENTRICITY":0.0146037,"INCLINATION":95.3946,"RA_OF_ASC_NODE":162.7652,"ARG_OF_PERICENTER":336.7876,"MEAN_ANOMALY":22.6796,"EPHEMERIS_TYPE":0,"CLASSIFICATION_TYPE":"U","NORAD_CAT_ID":59066,"ELEMENT_SET_NO":999,"REV_AT_EPOCH":10901,"BSTAR":0.00043904,"MEAN_MOTION_DOT":5.523e-5,"MEAN_MOTION_DDOT":0},{"OBJECT_NAME":"SITRO-AIS 26","OBJECT_ID":"2024-039S","EPOCH":"2026-03-03T21:00:16.725312","MEAN_MOTION":14.92383778,"ECCENTRICITY":0.014632,"INCLINATION":95.3945,"RA_OF_ASC_NODE":162.6752,"ARG_OF_PERICENTER":337.2649,"MEAN_ANOMALY":22.2137,"EPHEMERIS_TYPE":0,"CLASSIFICATION_TYPE":"U","NORAD_CAT_ID":59067,"ELEMENT_SET_NO":999,"REV_AT_EPOCH":10900,"BSTAR":0.0004401,"MEAN_MOTION_DOT":5.513e-5,"MEAN_MOTION_DDOT":0},{"OBJECT_NAME":"SITRO-AIS 27","OBJECT_ID":"2024-039T","EPOCH":"2026-03-03T20:58:40.278720","MEAN_MOTION":14.92777936,"ECCENTRICITY":0.0145453,"INCLINATION":95.3945,"RA_OF_ASC_NODE":162.8988,"ARG_OF_PERICENTER":336.1006,"MEAN_ANOMALY":23.351,"EPHEMERIS_TYPE":0,"CLASSIFICATION_TYPE":"U","NORAD_CAT_ID":59068,"ELEMENT_SET_NO":999,"REV_AT_EPOCH":10902,"BSTAR":0.00042569,"MEAN_MOTION_DOT":5.376e-5,"MEAN_MOTION_DDOT":0},{"OBJECT_NAME":"SITRO-AIS 28","OBJECT_ID":"2024-039U","EPOCH":"2026-03-03T20:29:41.172864","MEAN_MOTION":14.9281166,"ECCENTRICITY":0.0145401,"INCLINATION":95.3947,"RA_OF_ASC_NODE":162.9268,"ARG_OF_PERICENTER":336.0379,"MEAN_ANOMALY":23.4123,"EPHEMERIS_TYPE":0,"CLASSIFICATION_TYPE":"U","NORAD_CAT_ID":59071,"ELEMENT_SET_NO":999,"REV_AT_EPOCH":10902,"BSTAR":0.00039488,"MEAN_MOTION_DOT":4.987e-5,"MEAN_MOTION_DDOT":0},{"OBJECT_NAME":"GRBBETA","OBJECT_ID":"2024-128C","EPOCH":"2026-03-03T17:31:54.772320","MEAN_MOTION":15.05700198,"ECCENTRICITY":0.0051978,"INCLINATION":61.9889,"RA_OF_ASC_NODE":226.0172,"ARG_OF_PERICENTER":113.031,"MEAN_ANOMALY":247.6276,"EPHEMERIS_TYPE":0,"CLASSIFICATION_TYPE":"U","NORAD_CAT_ID":60237,"ELEMENT_SET_NO":999,"REV_AT_EPOCH":9038,"BSTAR":0.0005434,"MEAN_MOTION_DOT":7.928e-5,"MEAN_MOTION_DDOT":0}]
